[{"OBJECT_NAME":"OBJECT F","OBJECT_ID":"2023-072F","EPOCH":"2026-03-09T23:31:37.259904","MEAN_MOTION":15.29470958,"ECCENTRICITY":0.00062878,"INCLINATION":97.5173,"RA_OF_ASC_NODE":265.798,"ARG_OF_PERICENTER":19.0017,"MEAN_ANOMALY":341.1456,"EPHEMERIS_TYPE":0,"CLASSIFICATION_TYPE":"U","NORAD_CAT_ID":56748,"ELEMENT_SET_NO":999,"REV_AT_EPOCH":15460,"BSTAR":0.00043416252,"MEAN_MOTION_DOT":0.00012341,"MEAN_MOTION_DDOT":0},{"OBJECT_NAME":"STARLINK-34800","OBJECT_ID":"2025-190L","EPOCH":"2026-03-09T13:58:47.808192","MEAN_MOTION":15.3019755,"ECCENTRICITY":0.0001004,"INCLINATION":53.1584,"RA_OF_ASC_NODE":168.3357,"ARG_OF_PERICENTER":95.1229,"MEAN_ANOMALY":264.9886,"EPHEMERIS_TYPE":0,"CLASSIFICATION_TYPE":"U","NORAD_CAT_ID":65361,"ELEMENT_SET_NO":999,"REV_AT_EPOCH":2927,"BSTAR":0.0010317,"MEAN_MOTION_DOT":0.00030318,"MEAN_MOTION_DDOT":0}]
